[{"OBJECT_NAME":"STARLINK-1450","OBJECT_ID":"2020-035L","EPOCH":"2021-09-10T22:31:32.428128","MEAN_MOTION":15.06390205,"ECCENTRICITY":0.0001406,"INCLINATION":53.0529,"RA_OF_ASC_NODE":232.245,"ARG_OF_PERICENTER":72.9957,"MEAN_ANOMALY":287.1186,"EPHEMERIS_TYPE":0,"CLASSIFICATION_TYPE":"U","NORAD_CAT_ID":45667,"ELEMENT_SET_NO":999,"REV_AT_EPOCH":7142,"BSTAR":-2.9644e-5,"MEAN_MOTION_DOT":-7.23e-6,"MEAN_MOTION_DDOT":0},{"OBJECT_NAME":"STARLINK-1451","OBJECT_ID":"2020-035M","EPOCH":"2021-09-11T02:40:59.338560","MEAN_MOTION":15.06400101,"ECCENTRICITY":0.0001443,"INCLINATION":53.0544,"RA_OF_ASC_NODE":231.47,"ARG_OF_PERICENTER":58.1323,"MEAN_ANOMALY":301.9806,"EPHEMERIS_TYPE":0,"CLASSIFICATION_TYPE":"U","NORAD_CAT_ID":45668,"ELEMENT_SET_NO":999,"REV_AT_EPOCH":7105,"BSTAR":0.00010061,"MEAN_MOTION_DOT":1.217e-5,"MEAN_MOTION_DDOT":0},{"OBJECT_NAME":"STARLINK-1452","OBJECT_ID":"2020-035N","EPOCH":"2021-09-10T08:38:12.891552","MEAN_MOTION":15.06395957,"ECCENTRICITY":0.0001379,"INCLINATION":53.0533,"RA_OF_ASC_NODE":234.8411,"ARG_OF_PERICENTER":68.7042,"MEAN_ANOMALY":291.4094,"EPHEMERIS_TYPE":0,"CLASSIFICATION_TYPE":"U","NORAD_CAT_ID":45669,"ELEMENT_SET_NO":999,"REV_AT_EPOCH":7092,"BSTAR":9.0571e-5,"MEAN_MOTION_DOT":1.068e-5,"MEAN_MOTION_DDOT":0},{"OBJECT_NAME":"STARLINK-1453","OBJECT_ID":"2020-035P","EPOCH":"2021-09-11T01:57:11.465280","MEAN_MOTION":15.06402882,"ECCENTRICITY":0.0001497,"INCLINATION":53.0531,"RA_OF_ASC_NODE":201.6025,"ARG_OF_PERICENTER":61.182,"MEAN_ANOMALY":298.9319,"EPHEMERIS_TYPE":0,"CLASSIFICATION_TYPE":"U","NORAD_CAT_ID":45670,"ELEMENT_SET_NO":999,"REV_AT_EPOCH":7146,"BSTAR":-2.5847e-5,"MEAN_MOTION_DOT":-6.67e-6,"MEAN_MOTION_DDOT":0},{"OBJECT_NAME":"STARLINK-1454","OBJECT_ID":"2020-035Q","EPOCH":"2021-09-10T10:19:03.590688","MEAN_MOTION":15.06400748,"ECCENTRICITY":0.0001143,"INCLINATION":53.0532,"RA_OF_ASC_NODE":234.5267,"ARG_OF_PERICENTER":63.646,"MEAN_ANOMALY":296.4646,"EPHEMERIS_TYPE":0,"CLASSIFICATION_TYPE":"U","NORAD_CAT_ID":45671,"ELEMENT_SET_NO":999,"REV_AT_EPOCH":7134,"BSTAR":0.0001107,"MEAN_MOTION_DOT":1.368e-5,"MEAN_MOTION_DDOT":0},{"OBJECT_NAME":"STARLINK-1455","OBJECT_ID":"2020-035R","EPOCH":"2021-09-11T02:29:03.330528","MEAN_MOTION":15.06395644,"ECCENTRICITY":0.0001838,"INCLINATION":53.0559,"RA_OF_ASC_NODE":201.5072,"ARG_OF_PERICENTER":60.7917,"MEAN_ANOMALY":299.3255,"EPHEMERIS_TYPE":0,"CLASSIFICATION_TYPE":"U","NORAD_CAT_ID":45672,"ELEMENT_SET_NO":999,"REV_AT_EPOCH":7146,"BSTAR":-1.494e-5,"MEAN_MOTION_DOT":-5.04e-6,"MEAN_MOTION_DDOT":0},{"OBJECT_NAME":"STARLINK-1456","OBJECT_ID":"2020-035S","EPOCH":"2021-09-11T02:35:42.001728","MEAN_MOTION":15.06390251,"ECCENTRICITY":0.0001423,"INCLINATION":53.0552,"RA_OF_ASC_NODE":231.4887,"ARG_OF_PERICENTER":78.7927,"MEAN_ANOMALY":281.3222,"EPHEMERIS_TYPE":0,"CLASSIFICATION_TYPE":"U","NORAD_CAT_ID":45673,"ELEMENT_SET_NO":999,"REV_AT_EPOCH":7105,"BSTAR":-5.8641e-5,"MEAN_MOTION_DOT":-1.155e-5,"MEAN_MOTION_DDOT":0},{"OBJECT_NAME":"STARLINK-1457","OBJECT_ID":"2020-035T","EPOCH":"2021-09-11T02:46:17.799456","MEAN_MOTION":15.06404045,"ECCENTRICITY":0.0001315,"INCLINATION":53.0534,"RA_OF_ASC_NODE":231.4498,"ARG_OF_PERICENTER":68.6716,"MEAN_ANOMALY":291.4413,"EPHEMERIS_TYPE":0,"CLASSIFICATION_TYPE":"U","NORAD_CAT_ID":45674,"ELEMENT_SET_NO":999,"REV_AT_EPOCH":7106,"BSTAR":1.1163e-5,"MEAN_MOTION_DOT":-1.15e-6,"MEAN_MOTION_DDOT":0},{"OBJECT_NAME":"STARLINK-1458","OBJECT_ID":"2020-035U","EPOCH":"2021-09-11T02:30:23.008608","MEAN_MOTION":15.06402553,"ECCENTRICITY":0.0001196,"INCLINATION":53.0541,"RA_OF_ASC_NODE":231.5047,"ARG_OF_PERICENTER":67.6324,"MEAN_ANOMALY":292.4792,"EPHEMERIS_TYPE":0,"CLASSIFICATION_TYPE":"U","NORAD_CAT_ID":45675,"ELEMENT_SET_NO":999,"REV_AT_EPOCH":7104,"BSTAR":4.5224e-5,"MEAN_MOTION_DOT":3.92e-6,"MEAN_MOTION_DDOT":0},{"OBJECT_NAME":"STARLINK-1460","OBJECT_ID":"2020-035V","EPOCH":"2021-09-10T22:36:49.802112","MEAN_MOTION":15.06406468,"ECCENTRICITY":0.00012,"INCLINATION":53.0525,"RA_OF_ASC_NODE":232.2249,"ARG_OF_PERICENTER":56.9883,"MEAN_ANOMALY":303.1221,"EPHEMERIS_TYPE":0,"CLASSIFICATION_TYPE":"U","NORAD_CAT_ID":45676,"ELEMENT_SET_NO":999,"REV_AT_EPOCH":7139,"BSTAR":8.5026e-5,"MEAN_MOTION_DOT":9.86e-6,"MEAN_MOTION_DDOT":0},{"OBJECT_NAME":"STARLINK-1392","OBJECT_ID":"2020-035W","EPOCH":"2021-09-11T02:03:50.368896","MEAN_MOTION":15.06392549,"ECCENTRICITY":0.0001476,"INCLINATION":53.0546,"RA_OF_ASC_NODE":231.5801,"ARG_OF_PERICENTER":69.2464,"MEAN_ANOMALY":290.8683,"EPHEMERIS_TYPE":0,"CLASSIFICATION_TYPE":"U","NORAD_CAT_ID":45677,"ELEMENT_SET_NO":999,"REV_AT_EPOCH":7104,"BSTAR":7.8348e-5,"MEAN_MOTION_DOT":8.85e-6,"MEAN_MOTION_DDOT":0},{"OBJECT_NAME":"STARLINK-1393","OBJECT_ID":"2020-035X","EPOCH":"2021-09-11T01:54:32.311296","MEAN_MOTION":15.06403491,"ECCENTRICITY":0.0001139,"INCLINATION":53.0531,"RA_OF_ASC_NODE":221.6114,"ARG_OF_PERICENTER":53.2342,"MEAN_ANOMALY":306.8751,"EPHEMERIS_TYPE":0,"CLASSIFICATION_TYPE":"U","NORAD_CAT_ID":45678,"ELEMENT_SET_NO":999,"REV_AT_EPOCH":7118,"BSTAR":9.7079e-5,"MEAN_MOTION_DOT":1.165e-5,"MEAN_MOTION_DDOT":0},{"OBJECT_NAME":"STARLINK-1394","OBJECT_ID":"2020-035Y","EPOCH":"2021-09-10T21:13:13.927872","MEAN_MOTION":15.06400087,"ECCENTRICITY":0.0001155,"INCLINATION":53.0541,"RA_OF_ASC_NODE":222.4852,"ARG_OF_PERICENTER":65.6242,"MEAN_ANOMALY":294.4868,"EPHEMERIS_TYPE":0,"CLASSIFICATION_TYPE":"U","NORAD_CAT_ID":45679,"ELEMENT_SET_NO":999,"REV_AT_EPOCH":7156,"BSTAR":9.2797e-5,"MEAN_MOTION_DOT":1.101e-5,"MEAN_MOTION_DDOT":0},{"OBJECT_NAME":"STARLINK-1395","OBJECT_ID":"2020-035Z","EPOCH":"2021-09-11T02:10:28.184736","MEAN_MOTION":15.0639983,"ECCENTRICITY":0.0001432,"INCLINATION":53.0542,"RA_OF_ASC_NODE":221.5626,"ARG_OF_PERICENTER":53.15,"MEAN_ANOMALY":306.9621,"EPHEMERIS_TYPE":0,"CLASSIFICATION_TYPE":"U","NORAD_CAT_ID":45680,"ELEMENT_SET_NO":999,"REV_AT_EPOCH":7118,"BSTAR":-3.3688e-5,"MEAN_MOTION_DOT":-7.83e-6,"MEAN_MOTION_DDOT":0},{"OBJECT_NAME":"STARLINK-1396","OBJECT_ID":"2020-035AA","EPOCH":"2021-09-10T10:09:45.876960","MEAN_MOTION":15.06402102,"ECCENTRICITY":0.0001029,"INCLINATION":53.0527,"RA_OF_ASC_NODE":224.5568,"ARG_OF_PERICENTER":61.4729,"MEAN_ANOMALY":298.6363,"EPHEMERIS_TYPE":0,"CLASSIFICATION_TYPE":"U","NORAD_CAT_ID":45681,"ELEMENT_SET_NO":999,"REV_AT_EPOCH":7108,"BSTAR":-2.7558e-5,"MEAN_MOTION_DOT":-6.92e-6,"MEAN_MOTION_DDOT":0},{"OBJECT_NAME":"STARLINK-1397","OBJECT_ID":"2020-035AB","EPOCH":"2021-09-11T02:15:47.062944","MEAN_MOTION":15.06405986,"ECCENTRICITY":0.0001131,"INCLINATION":53.0546,"RA_OF_ASC_NODE":221.546,"ARG_OF_PERICENTER":53.145,"MEAN_ANOMALY":306.9642,"EPHEMERIS_TYPE":0,"CLASSIFICATION_TYPE":"U","NORAD_CAT_ID":45682,"ELEMENT_SET_NO":999,"REV_AT_EPOCH":7118,"BSTAR":3.1151e-5,"MEAN_MOTION_DOT":1.83e-6,"MEAN_MOTION_DDOT":0},{"OBJECT_NAME":"STARLINK-1399","OBJECT_ID":"2020-035AC","EPOCH":"2021-09-11T01:49:13.880640","MEAN_MOTION":15.06402111,"ECCENTRICITY":0.0001339,"INCLINATION":53.054,"RA_OF_ASC_NODE":221.6251,"ARG_OF_PERICENTER":46.465,"MEAN_ANOMALY":313.645,"EPHEMERIS_TYPE":0,"CLASSIFICATION_TYPE":"U","NORAD_CAT_ID":45683,"ELEMENT_SET_NO":999,"REV_AT_EPOCH":7118,"BSTAR":0.00013291,"MEAN_MOTION_DOT":1.699e-5,"MEAN_MOTION_DDOT":0}]
