STARLINK-1450           
1 45667U 20035L   21253.93856977 -.00000723  00000-0 -29644-4 0  9998
2 45667  53.0529 232.2450 0001406  72.9957 287.1186 15.06390205 71420
STARLINK-1451           
1 45668U 20035M   21254.11179790  .00001217  00000-0  10061-3 0  9990
2 45668  53.0544 231.4700 0001443  58.1323 301.9806 15.06400101 71051
STARLINK-1452           
1 45669U 20035N   21253.35987143  .00001068  00000-0  90571-4 0  9994
2 45669  53.0533 234.8411 0001379  68.7042 291.4094 15.06395957 70928
STARLINK-1453           
1 45670U 20035P   21254.08138270 -.00000667  00000-0 -25847-4 0  9996
2 45670  53.0531 201.6025 0001497  61.1820 298.9319 15.06402882 71461
STARLINK-1454           
1 45671U 20035Q   21253.42990267  .00001368  00000-0  11070-3 0  9995
2 45671  53.0532 234.5267 0001143  63.6460 296.4646 15.06400748 71343
STARLINK-1455           
1 45672U 20035R   21254.10351077 -.00000504  00000-0 -14940-4 0  9995
2 45672  53.0559 201.5072 0001838  60.7917 299.3255 15.06395644 71466
STARLINK-1456           
1 45673U 20035S   21254.10812502 -.00001155  00000-0 -58641-4 0  9990
2 45673  53.0552 231.4887 0001423  78.7927 281.3222 15.06390251 71055
STARLINK-1457           
1 45674U 20035T   21254.11548379 -.00000115  00000-0  11163-4 0  9992
2 45674  53.0534 231.4498 0001315  68.6716 291.4413 15.06404045 71060
STARLINK-1458           
1 45675U 20035U   21254.10443297  .00000392  00000-0  45224-4 0  9996
2 45675  53.0541 231.5047 0001196  67.6324 292.4792 15.06402553 71042
STARLINK-1460           
1 45676U 20035V   21253.94224308  .00000986  00000-0  85026-4 0  9991
2 45676  53.0525 232.2249 0001200  56.9883 303.1221 15.06406468 71398
STARLINK-1392           
1 45677U 20035W   21254.08599964  .00000885  00000-0  78348-4 0  9998
2 45677  53.0546 231.5801 0001476  69.2464 290.8683 15.06392549 71045
STARLINK-1393           
1 45678U 20035X   21254.07954064  .00001165  00000-0  97079-4 0  9998
2 45678  53.0531 221.6114 0001139  53.2342 306.8751 15.06403491 71189
STARLINK-1394           
1 45679U 20035Y   21253.88418898  .00001101  00000-0  92797-4 0  9999
2 45679  53.0541 222.4852 0001155  65.6242 294.4868 15.06400087 71564
STARLINK-1395           
1 45680U 20035Z   21254.09060399 -.00000783  00000-0 -33688-4 0  9995
2 45680  53.0542 221.5626 0001432  53.1500 306.9621 15.06399830 71180
STARLINK-1396           
1 45681U 20035AA  21253.42344765 -.00000692  00000-0 -27558-4 0  9992
2 45681  53.0527 224.5568 0001029  61.4729 298.6363 15.06402102 71085
STARLINK-1397           
1 45682U 20035AB  21254.09429471  .00000183  00000-0  31151-4 0  9992
2 45682  53.0546 221.5460 0001131  53.1450 306.9642 15.06405986 71185
STARLINK-1399           
1 45683U 20035AC  21254.07585510  .00001699  00000-0  13291-3 0  9995
2 45683  53.0540 221.6251 0001339  46.4650 313.6450 15.06402111 71185
